{
  "type": "FeatureCollection",
  "name": "Chokepoints",
  "crs": { "type": "name", "properties": { "name": "urn:ogc:def:crs:OGC:1.3:CRS84" } },
  "features": [
    { "type": "Feature", "properties": { "X": 32.43688221, "Y": 30.59334599, "portid": "chokepoint1", "portname": "Suez Canal", "country": null, "ISO3": null, "fullname": "Suez Canal", "lat": 30.59334599, "lon": 32.43688221, "pageid": "c57c79bf612b4372b08a9c6ea9c97ef0", "ObjectId": 1 }, "geometry": { "type": "Point", "coordinates": [ 32.43688221, 30.59334599 ] } },
    { "type": "Feature", "properties": { "X": -79.76723825, "Y": 9.120512367, "portid": "chokepoint2", "portname": "Panama Canal", "country": null, "ISO3": null, "fullname": "Panama Canal", "lat": 9.120512367, "lon": -79.76723825000001, "pageid": "44d73fd00bbc4f73a16d46d5beb11b4d", "ObjectId": 2 }, "geometry": { "type": "Point", "coordinates": [ -79.76723825, 9.120512367 ] } },
    { "type": "Feature", "properties": { "X": 29.09150126, "Y": 41.16928167, "portid": "chokepoint3", "portname": "Bosporus Strait", "country": null, "ISO3": null, "fullname": "Bosporus Strait", "lat": 41.16928167, "lon": 29.09150126, "pageid": "837f298c756a4efd85e3fabe31e319ac", "ObjectId": 3 }, "geometry": { "type": "Point", "coordinates": [ 29.09150126, 41.16928167 ] } },
    { "type": "Feature", "properties": { "X": 43.34954476, "Y": 12.78859715, "portid": "chokepoint4", "portname": "Bab el-Mandeb Strait", "country": null, "ISO3": null, "fullname": "Bab el-Mandeb Strait", "lat": 12.78859715, "lon": 43.34954476, "pageid": "6b1814d64903461b98144a6cc25eb79c", "ObjectId": 4 }, "geometry": { "type": "Point", "coordinates": [ 43.34954476, 12.78859715 ] } },
    { "type": "Feature", "properties": { "X": 102.6651061, "Y": 1.516954817, "portid": "chokepoint5", "portname": "Malacca Strait", "country": null, "ISO3": null, "fullname": "Malacca Strait", "lat": 1.516954817, "lon": 102.6651061, "pageid": "5f51a0d85ac44a6bad02561e25899c4a", "ObjectId": 5 }, "geometry": { "type": "Point", "coordinates": [ 102.6651061, 1.516954817 ] } },
    { "type": "Feature", "properties": { "X": 56.85984844, "Y": 26.29685349, "portid": "chokepoint6", "portname": "Strait of Hormuz", "country": null, "ISO3": null, "fullname": "Strait of Hormuz", "lat": 26.29685349, "lon": 56.85984844, "pageid": "cb5856222a5b4105adc6ee7e880a1730", "ObjectId": 6 }, "geometry": { "type": "Point", "coordinates": [ 56.85984844, 26.29685349 ] } },
    { "type": "Feature", "properties": { "X": 20.88273666, "Y": -34.92728556, "portid": "chokepoint7", "portname": "Cape of Good Hope", "country": null, "ISO3": null, "fullname": "Cape of Good Hope", "lat": -34.92728556, "lon": 20.88273666, "pageid": "edf18f455a2b4637a3632b6af201abe9", "ObjectId": 7 }, "geometry": { "type": "Point", "coordinates": [ 20.88273666, -34.92728556 ] } },
    { "type": "Feature", "properties": { "X": -5.754895722, "Y": 35.94227416, "portid": "chokepoint8", "portname": "Gibraltar Strait", "country": null, "ISO3": null, "fullname": "Gibraltar Strait", "lat": 35.94227416, "lon": -5.754895722, "pageid": "d2b71882a70449288ee9bd15421d2aa9", "ObjectId": 8 }, "geometry": { "type": "Point", "coordinates": [ -5.754895722, 35.94227416 ] } },
    { "type": "Feature", "properties": { "X": 1.505839717, "Y": 51.03022414, "portid": "chokepoint9", "portname": "Dover Strait", "country": null, "ISO3": null, "fullname": "Dover Strait", "lat": 51.03022414, "lon": 1.505839717, "pageid": "34a9c079e9e14b19a1ca9f218f368d12", "ObjectId": 9 }, "geometry": { "type": "Point", "coordinates": [ 1.505839717, 51.03022414 ] } },
    { "type": "Feature", "properties": { "X": 12.85079477, "Y": 55.50784043, "portid": "chokepoint10", "portname": "Oresund Strait", "country": null, "ISO3": null, "fullname": "Oresund Strait", "lat": 55.50784043, "lon": 12.85079477, "pageid": "65ec417b135745d0924b2c0d68649d1a", "ObjectId": 10 }, "geometry": { "type": "Point", "coordinates": [ 12.85079477, 55.50784043 ] } },
    { "type": "Feature", "properties": { "X": 119.8313644, "Y": 24.72350972, "portid": "chokepoint11", "portname": "Taiwan Strait", "country": null, "ISO3": null, "fullname": "Taiwan Strait", "lat": 24.72350972, "lon": 119.8313644, "pageid": "e3001146dc5c4666bb36d5024f4389a7", "ObjectId": 11 }, "geometry": { "type": "Point", "coordinates": [ 119.8313644, 24.72350972 ] } },
    { "type": "Feature", "properties": { "X": 129.209206, "Y": 34.13076811, "portid": "chokepoint12", "portname": "Korea Strait", "country": null, "ISO3": null, "fullname": "Korea Strait", "lat": 34.13076811, "lon": 129.209206, "pageid": "3adbfe51b53e42e48ef5ece5a3bb12a9", "ObjectId": 12 }, "geometry": { "type": "Point", "coordinates": [ 129.209206, 34.13076811 ] } },
    { "type": "Feature", "properties": { "X": 140.3532743, "Y": 41.32803599, "portid": "chokepoint13", "portname": "Tsugaru Strait", "country": null, "ISO3": null, "fullname": "Tsugaru Strait", "lat": 41.32803599, "lon": 140.3532743, "pageid": "5b5450a9b33b4e57952e2dff890be7ad", "ObjectId": 13 }, "geometry": { "type": "Point", "coordinates": [ 140.3532743, 41.32803599 ] } },
    { "type": "Feature", "properties": { "X": 121.352295045579, "Y": 20.488890710794, "portid": "chokepoint14", "portname": "Luzon Strait", "country": null, "ISO3": null, "fullname": "Luzon Strait", "lat": 20.488890710793999, "lon": 121.352295045579, "pageid": "7eaad0054dad4ae7acdae2d86c612fbe", "ObjectId": 14 }, "geometry": { "type": "Point", "coordinates": [ 121.352295045579, 20.488890710794 ] } },
    { "type": "Feature", "properties": { "X": 115.801433044024, "Y": -8.41914514129252, "portid": "chokepoint15", "portname": "Lombok Strait", "country": null, "ISO3": null, "fullname": "Lombok Strait", "lat": -8.419145141292519, "lon": 115.801433044024, "pageid": "152bef5391ca44e8af7b102c966daf87", "ObjectId": 15 }, "geometry": { "type": "Point", "coordinates": [ 115.801433044024, -8.419145141292519 ] } },
    { "type": "Feature", "properties": { "X": 125.090981399512, "Y": -8.39854120024364, "portid": "chokepoint16", "portname": "Ombai Strait", "country": null, "ISO3": null, "fullname": "Ombai Strait", "lat": -8.39854120024364, "lon": 125.090981399512, "pageid": "201f4309e3694ad789ad35266c7fda62", "ObjectId": 16 }, "geometry": { "type": "Point", "coordinates": [ 125.090981399512, -8.39854120024364 ] } },
    { "type": "Feature", "properties": { "X": 120.900049176636, "Y": 38.373044249766, "portid": "chokepoint17", "portname": "Bohai Strait", "country": null, "ISO3": null, "fullname": "Bohai Strait", "lat": 38.373044249766, "lon": 120.900049176636, "pageid": "cf77151f98b641769ee4a2df13cc6d57", "ObjectId": 17 }, "geometry": { "type": "Point", "coordinates": [ 120.900049176636, 38.373044249766 ] } },
    { "type": "Feature", "properties": { "X": 142.247528743501, "Y": -9.86253413199954, "portid": "chokepoint18", "portname": "Torres Strait", "country": null, "ISO3": null, "fullname": "Torres Strait", "lat": -9.86253413199954, "lon": 142.247528743501, "pageid": "62e6baba51d54fc6887b598f62358912", "ObjectId": 18 }, "geometry": { "type": "Point", "coordinates": [ 142.247528743501, -9.86253413199954 ] } },
    { "type": "Feature", "properties": { "X": 105.775219888066, "Y": -5.96684057041462, "portid": "chokepoint19", "portname": "Sunda Strait", "country": null, "ISO3": null, "fullname": "Sunda Strait", "lat": -5.96684057041462, "lon": 105.775219888066, "pageid": "47dbeae6b75e438b88c92b4c3c495f07", "ObjectId": 19 }, "geometry": { "type": "Point", "coordinates": [ 105.775219888066, -5.96684057041462 ] } },
    { "type": "Feature", "properties": { "X": 119.257065444388, "Y": 0.352280586988657, "portid": "chokepoint20", "portname": "Makassar Strait", "country": null, "ISO3": null, "fullname": "Makassar Strait", "lat": 0.352280586988657, "lon": 119.257065444388, "pageid": "01be21ec85b448689f4c0e5d623715ec", "ObjectId": 20 }, "geometry": { "type": "Point", "coordinates": [ 119.257065444388, 0.352280586988657 ] } },
    { "type": "Feature", "properties": { "X": -69.5948324606974, "Y": -52.6403396677892, "portid": "chokepoint21", "portname": "Magellan Strait", "country": null, "ISO3": null, "fullname": "Magellan Strait", "lat": -52.6403396677892, "lon": -69.5948324606974, "pageid": "32a8deea4def480790d78fcfb5f6dff4", "ObjectId": 21 }, "geometry": { "type": "Point", "coordinates": [ -69.5948324606974, -52.6403396677892 ] } },
    { "type": "Feature", "properties": { "X": -85.6472792223515, "Y": 21.8152541926988, "portid": "chokepoint22", "portname": "Yucatan Channel", "country": null, "ISO3": null, "fullname": "Yucatan Channel", "lat": 21.8152541926988, "lon": -85.6472792223515, "pageid": "b028745615454909bde67aa947502c90", "ObjectId": 22 }, "geometry": { "type": "Point", "coordinates": [ -85.6472792223515, 21.8152541926988 ] } },
    { "type": "Feature", "properties": { "X": -73.6975398964955, "Y": 19.9861871932071, "portid": "chokepoint23", "portname": "Windward Passage", "country": null, "ISO3": null, "fullname": "Windward Passage", "lat": 19.9861871932071, "lon": -73.6975398964955, "pageid": "b5759986427c4b1abf2b5da5a9ddf066", "ObjectId": 23 }, "geometry": { "type": "Point", "coordinates": [ -73.6975398964955, 19.9861871932071 ] } },
    { "type": "Feature", "properties": { "X": -67.7113544869163, "Y": 18.4487355684237, "portid": "chokepoint24", "portname": "Mona Passage", "country": null, "ISO3": null, "fullname": "Mona Passage", "lat": 18.4487355684237, "lon": -67.7113544869163, "pageid": "214b7be27e78457f89a01cfa2c794900", "ObjectId": 24 }, "geometry": { "type": "Point", "coordinates": [ -67.7113544869163, 18.4487355684237 ] } },
    { "type": "Feature", "properties": { "X": 117.114621682663, "Y": 7.41361499317768, "portid": "chokepoint25", "portname": "Balabac Strait", "country": null, "ISO3": null, "fullname": "Balabac Strait", "lat": 7.413614993177675, "lon": 117.114621682663, "pageid": "b7d8909b058749da808d519942087890", "ObjectId": 25 }, "geometry": { "type": "Point", "coordinates": [ 117.114621682663, 7.41361499317768 ] } },
    { "type": "Feature", "properties": { "X": -165.549828611457, "Y": 65.9664885915593, "portid": "chokepoint26", "portname": "Bering Strait", "country": null, "ISO3": null, "fullname": "Bering Strait", "lat": 65.96648859155934, "lon": -165.549828611457, "pageid": "1707bd5d6a21481ab8c6b98ab4ed412c", "ObjectId": 26 }, "geometry": { "type": "Point", "coordinates": [ -165.549828611457, 65.9664885915593 ] } },
    { "type": "Feature", "properties": { "X": 120.403427878012, "Y": 12.4683153719592, "portid": "chokepoint27", "portname": "Mindoro Strait", "country": null, "ISO3": null, "fullname": "Mindoro Strait", "lat": 12.468315371959248, "lon": 120.403427878012, "pageid": "7fdc7d8c9da1447bb2968f55c58b025c", "ObjectId": 27 }, "geometry": { "type": "Point", "coordinates": [ 120.403427878012, 12.4683153719592 ] } },
    { "type": "Feature", "properties": { "X": 36.54390169965, "Y": 45.266763090417, "portid": "chokepoint28", "portname": "Kerch Strait", "country": null, "ISO3": null, "fullname": "Kerch Strait", "lat": 45.26676309041701, "lon": 36.54390169965, "pageid": "0f7ba54d142e48ea98f8b70a159cd6ae", "ObjectId": 28 }, "geometry": { "type": "Point", "coordinates": [ 36.54390169965, 45.266763090417 ] } }
  ]
}